              M50 Cartesian                         J2K Cartesian  
    -----------------------------------       --------------------------------
     X    =       18930297.39                 X    =         5795500.10
     Y    =      -10146519.39  feet           Y    =        -3027992.65  meter
     Z    =        5814332.52                 Z    =         1800299.75
     XDOT =      12088.821215                 XDOT =        3671.659748
     YDOT =      11830.312599  feet/sec       YDOT =        3647.010456  meter/sec
     ZDOT =     -18629.673296                 ZDOT =       -5660.457225
 
              TDR Cartesian                         TDR Cartesian  
    -----------------------------------       --------------------------------
     X    =       20032150.55                 X    =         6105799.49
     Y    =       -7653887.15  feet           Y    =        -2332904.80  meter
     Z    =        5936786.48                 Z    =         1809532.52
     XDOT =      10042.054395                 XDOT =        3060.818180
     YDOT =      11828.161858  feet/sec       YDOT =        3605.223734  meter/sec
     ZDOT =     -18552.656517                 ZDOT =       -5654.849706
  
  
    The mean element set is posted at the UTC for which position is
    just north of the next ascending node relative to the above
    vector time
 
 
    TWO LINE MEAN ELEMENT SET
  
    ISS
    1 25544U 98067A   16075.53573653  .00016717  00000-0  10270-3 0  9047
    2 25544  51.6422 165.0973 0001688 291.6330  68.4642 15.54109666 30411
  
  
    Satellite: ISS
    Catalog Number: 25544
    Epoch time:      16075.53573653   =   yrday.fracday
    Element set:     904
    Inclination:       51.6422  deg
    RA of node:       165.0973  deg
    Eccentricity:     .0001688     
    Arg of perigee:   291.6330  deg
    Mean anomaly:      68.4642  deg
    Mean motion:   15.54109666  rev/day
    Decay rate:    1.67170E-04  rev/day^2
    Epoch rev:            3041
    Checksum:              312
 
 
    Coasting Arc #6 (Orbit 3055)
    ---------------------------------------
 
    Vector Time (GMT): 2016/076/12:00:00.000
    Vector Time (MET): N/A
    Weight (LBS)     : 890369.9
 
              M50 Cartesian                         M50 Keplerian  
    -----------------------------------       --------------------------------
     X    =       -6312028.69                 A    =         6789340.00  meter
     Y    =        2481724.98  meter          E    =           .0011572
     Z    =         -94938.63                 I    =           51.78826
     XDOT =      -1809.592302                 Wp   =           35.75368
     YDOT =      -4386.539980  meter/sec      RA   =          159.16795  deg
     ZDOT =       6025.148810                 TA   =          323.22564
                                              MA   =          323.30498
                                              Ha   =            220.453  n.mi
                                              Hp   =            215.269
 
              M50 Cartesian                         J2K Cartesian  
    -----------------------------------       --------------------------------
     X    =      -20708755.54                 X    =        -6338849.66
     Y    =        8142142.32  feet           Y    =         2410989.71  meter
     Z    =        -311478.43                 Z    =         -125666.02
     XDOT =      -5936.982617                 XDOT =       -1789.673784
     YDOT =     -14391.535367  feet/sec       YDOT =       -4406.664113  meter/sec
     ZDOT =      19767.548589                 ZDOT =        6016.407119
 
              TDR Cartesian                         TDR Cartesian  
    -----------------------------------       --------------------------------
     X    =      -21478902.54                 X    =        -6546769.49
     Y    =        5805386.10  feet           Y    =         1769481.68  meter
     Z    =        -445302.48                 Z    =         -135728.20
     XDOT =      -4014.203523                 XDOT =       -1223.529234
     YDOT =     -13405.192645  feet/sec       YDOT =       -4085.902718  meter/sec
     ZDOT =      19730.273564                 ZDOT =        6013.787382
  
  
    The mean element set is posted at the UTC for which position is
    just north of the next ascending node relative to the above
    vector time
 
 
    TWO LINE MEAN ELEMENT SET
  
    ISS
    1 25544U 98067A   16076.50026406  .00016717  00000-0  10270-3 0  9055
    2 25544  51.6429 160.2893 0001871 301.6370  58.4600 15.54121903 30563
  
  
    Satellite: ISS
    Catalog Number: 25544
    Epoch time:      16076.50026406   =   yrday.fracday
    Element set:     905
    Inclination:       51.6429  deg
    RA of node:       160.2893  deg
    Eccentricity:     .0001871     
    Arg of perigee:   301.6370  deg
    Mean anomaly:      58.4600  deg
    Mean motion:   15.54121903  rev/day
    Decay rate:    1.67170E-04  rev/day^2
    Epoch rev:            3056
    Checksum:              282
 
 
    Coasting Arc #7 (Orbit 3066)
    ---------------------------------------
 
    Vector Time (GMT): 2016/077/03:58:30.000
    Vector Time (MET): N/A
    Weight (LBS)     : 890369.9
 
              M50 Cartesian                         M50 Keplerian  
    -----------------------------------       --------------------------------
     X    =        2218954.99                 A    =         6781174.57  meter
     Y    =       -4726753.34  meter          E    =           .0008708
     Z    =        4322723.52                 I    =           51.78005
     XDOT =       6816.258490                 Wp   =           59.58883
     YDOT =        -24.059600  meter/sec      RA   =          155.83356  deg
     ZDOT =      -3515.677932                 TA   =           66.15142
                                              MA   =           66.06018
                                              Ha   =            220.339  n.mi
                                              Hp   =            215.172
 
              M50 Cartesian                         J2K Cartesian  
    -----------------------------------       --------------------------------
     X    =        7280036.06                 X    =         2250648.07
     Y    =      -15507720.93  feet           Y    =        -4701761.88  meter
     Z    =       14182163.79                 Z    =         4333579.98
     XDOT =      22363.052788                 XDOT =        6833.098419
     YDOT =        -78.935696  feet/sec       YDOT =          52.258146  meter/sec
     ZDOT =     -11534.376416                 ZDOT =       -3482.525673
 
              TDR Cartesian                         TDR Cartesian  
    -----------------------------------       --------------------------------
     X    =        8303931.96                 X    =         2531038.46
     Y    =       14938955.36  feet           Y    =         4553393.59  meter
     Z    =       14230053.76                 Z    =         4337320.39
     XDOT =     -12052.945114                 XDOT =       -3673.737671
     YDOT =      17579.427930  feet/sec       YDOT =        5358.209633  meter/sec
     ZDOT =     -11390.394438                 ZDOT =       -3471.792225
  
  
    The mean element set is posted at the UTC for which position is
    just north of the next ascending node relative to the above
    vector time
 
 
    TWO LINE MEAN ELEMENT SET
  
    ISS
    1 25544U 98067A   16077.20757290  .00016717  00000-0  10270-3 0  9066
    2 25544  51.6414 156.7637 0002218 310.4968  49.5991 15.54187794 30676
  
  
    Satellite: ISS
    Catalog Number: 25544
    Epoch time:      16077.20757290   =   yrday.fracday
    Element set:     906
    Inclination:       51.6414  deg
    RA of node:       156.7637  deg
    Eccentricity:     .0002218     
    Arg of perigee:   310.4968  deg
    Mean anomaly:      49.5991  deg
    Mean motion:   15.54187794  rev/day
    Decay rate:    1.67170E-04  rev/day^2
    Epoch rev:            3067
    Checksum:              336
 
 
    Coasting Arc #8 (Orbit 3081)
    ---------------------------------------
 
    Vector Time (GMT): 2016/078/03:58:30.000
    Vector Time (MET): N/A
    Weight (LBS)     : 890369.9
 
              M50 Cartesian                         M50 Keplerian  
    -----------------------------------       --------------------------------
     X    =       -3623170.00                 A    =         6785001.63  meter
     Y    =        4820144.77  meter          E    =           .0003881
     Z    =       -3110111.47                 I    =           51.81985
     XDOT =      -5776.662431                 Wp   =           50.66415
     YDOT =      -1187.283496  meter/sec      RA   =          150.85882  deg
     ZDOT =       4895.996078                 TA   =          273.66395
                                              MA   =          273.70833
                                              Ha   =            220.455  n.mi
                                              Hp   =            215.043
 
              M50 Cartesian                         J2K Cartesian  
    -----------------------------------       --------------------------------
     X    =      -11887040.67                 X    =        -3661693.37
     Y    =       15814123.27  feet           Y    =         4779412.34  meter
     Z    =      -10203777.77                 Z    =        -3127805.80
     XDOT =     -18952.304564                 XDOT =       -5786.738965
     YDOT =      -3895.287059  feet/sec       YDOT =       -1251.937780  meter/sec
     ZDOT =      16062.979259                 ZDOT =        4867.910485
 
